[{"OBJECT_NAME":"STARLINK-5371","OBJECT_ID":"2023-015AS","EPOCH":"2026-03-09T22:00:01.999584","MEAN_MOTION":15.12745124,"ECCENTRICITY":0.00021545,"INCLINATION":42.9999,"RA_OF_ASC_NODE":337.3574,"ARG_OF_PERICENTER":259.4989,"MEAN_ANOMALY":68.1375,"EPHEMERIS_TYPE":0,"CLASSIFICATION_TYPE":"U","NORAD_CAT_ID":55489,"ELEMENT_SET_NO":999,"REV_AT_EPOCH":577,"BSTAR":0.0026663223,"MEAN_MOTION_DOT":0.00047663,"MEAN_MOTION_DDOT":0},{"OBJECT_NAME":"FENGYUN 1C DEB","OBJECT_ID":"1999-025AYA","EPOCH":"2026-03-09T23:00:33.421824","MEAN_MOTION":14.97109165,"ECCENTRICITY":0.00762057,"INCLINATION":99.4912,"RA_OF_ASC_NODE":70.9716,"ARG_OF_PERICENTER":234.2891,"MEAN_ANOMALY":125.1218,"EPHEMERIS_TYPE":0,"CLASSIFICATION_TYPE":"U","NORAD_CAT_ID":30888,"ELEMENT_SET_NO":999,"REV_AT_EPOCH":1220,"BSTAR":0.0012389306,"MEAN_MOTION_DOT":0.0001511,"MEAN_MOTION_DDOT":0}]
